line1,line2,validFromUtcTime
1 00000U 00000E   26001.00000000  .00000000  00000-0  27772-4 0    01,2 00000  88.9258 150.3354 0009859 269.1587 195.7173 13.55239703    03,2026-01-01T00:00:00Z
1 00000U 00000E   26002.00000000  .00000000  00000-0  27772-4 0    02,2 00000  88.9258 150.2262 0009859 266.2487  34.5787 13.55239741    00,2026-01-02T00:00:00Z
